start=new Date('2022-10-25T00:00:00.000Z').valueOf();
sats=[{"FILE":"3631857","PERIOD":"95.593","EPOCH":"2022-10-24T15:11:08.525184","RA_OF_ASC_NODE":"67.5249","ELEMENT_SET_NO":"999","TLE_LINE2":"2 46151  53.0536  67.5249 0001348 103.0033 257.1107 15.06387401120641","SITE":"AFETR","COUNTRY_CODE":"US","MEAN_MOTION_DOT":"-0.00004610","NORAD_CAT_ID":"46151","OBJECT_NAME":"STARLINK-1631","RCS_SIZE":"LARGE","MEAN_MOTION_DDOT":"0.0000000000000","ARG_OF_PERICENTER":"103.0033","OBJECT_TYPE":"PAYLOAD","GP_ID":"216069019","TIME_SYSTEM":"UTC","MEAN_ANOMALY":"257.1107","SEMIMAJOR_AXIS":"6925.387","REF_FRAME":"TEME","CLASSIFICATION_TYPE":"U","MEAN_ELEMENT_THEORY":"SGP4","CENTER_NAME":"EARTH","BSTAR":"-0.00029086000000","PERIAPSIS":"546.319","EPHEMERIS_TYPE":"0","MEAN_MOTION":"15.06387401","OBJECT_ID":"2020-057AL","REV_AT_EPOCH":"12064","APOAPSIS":"548.186","ECCENTRICITY":"0.00013480","TLE_LINE1":"1 46151U 20057AL  22297.63273756 -.00004610  00000-0 -29086-3 0  9993","INCLINATION":"53.0536","DECAY_DATE":null,"LAUNCH_DATE":"2020-08-18"},{"CENTER_NAME":"EARTH","BSTAR":"-0.00012231000000","PERIAPSIS":"546.185","GP_ID":"216068269","CLASSIFICATION_TYPE":"U","MEAN_ELEMENT_THEORY":"SGP4","TIME_SYSTEM":"UTC","MEAN_ANOMALY":"261.9973","REF_FRAME":"TEME","SEMIMAJOR_AXIS":"6925.392","INCLINATION":"53.0535","ECCENTRICITY":"0.00015490","TLE_LINE1":"1 46152U 20057AM  22297.68250210 -.00002102  00000-0 -12231-3 0  9997","DECAY_DATE":null,"LAUNCH_DATE":"2020-08-18","EPHEMERIS_TYPE":"0","MEAN_MOTION":"15.06385711","OBJECT_ID":"2020-057AM","REV_AT_EPOCH":"12037","APOAPSIS":"548.330","SITE":"AFETR","TLE_LINE2":"2 46152  53.0535  87.3200 0001549  98.1192 261.9973 15.06385711120377","EPOCH":"2022-10-24T16:22:48.181440","FILE":"3631857","PERIOD":"95.593","RA_OF_ASC_NODE":"87.3200","ELEMENT_SET_NO":"999","ARG_OF_PERICENTER":"98.1192","MEAN_MOTION_DDOT":"0.0000000000000","OBJECT_TYPE":"PAYLOAD","COUNTRY_CODE":"US","NORAD_CAT_ID":"46152","OBJECT_NAME":"STARLINK-1634","RCS_SIZE":"LARGE","MEAN_MOTION_DOT":"-0.00002102"},{"RA_OF_ASC_NODE":"67.4538","ELEMENT_SET_NO":"999","FILE":"3631857","PERIOD":"95.591","EPOCH":"2022-10-24T15:37:42.333888","TLE_LINE2":"2 46153  53.0529  67.4538 0001307  94.9956 265.1182 15.06412033120644","SITE":"AFETR","MEAN_MOTION_DOT":"-0.00012871","OBJECT_NAME":"STARLINK-1636","NORAD_CAT_ID":"46153","RCS_SIZE":"LARGE","COUNTRY_CODE":"US","OBJECT_TYPE":"PAYLOAD","MEAN_MOTION_DDOT":"0.0000000000000","ARG_OF_PERICENTER":"94.9956","MEAN_ANOMALY":"265.1182","TIME_SYSTEM":"UTC","SEMIMAJOR_AXIS":"6925.312","REF_FRAME":"TEME","CLASSIFICATION_TYPE":"U","MEAN_ELEMENT_THEORY":"SGP4","GP_ID":"216068519","PERIAPSIS":"546.272","CENTER_NAME":"EARTH","BSTAR":"-0.00084646000000","OBJECT_ID":"2020-057AN","REV_AT_EPOCH":"12064","APOAPSIS":"548.082","EPHEMERIS_TYPE":"0","MEAN_MOTION":"15.06412033","LAUNCH_DATE":"2020-08-18","DECAY_DATE":null,"ECCENTRICITY":"0.00013070","TLE_LINE1":"1 46153U 20057AN  22297.65118442 -.00012871  00000-0 -84646-3 0  9998","INCLINATION":"53.0529"},{"MEAN_MOTION":"15.06383621","EPHEMERIS_TYPE":"0","APOAPSIS":"548.105","REV_AT_EPOCH":"12051","OBJECT_ID":"2020-057AP","TLE_LINE1":"1 46154U 20057AP  22297.66131532 -.00001500  00000-0 -81857-4 0  9994","ECCENTRICITY":"0.00012140","INCLINATION":"53.0542","DECAY_DATE":null,"LAUNCH_DATE":"2020-08-18","GP_ID":"216068771","SEMIMAJOR_AXIS":"6925.399","REF_FRAME":"TEME","TIME_SYSTEM":"UTC","MEAN_ANOMALY":"276.5121","MEAN_ELEMENT_THEORY":"SGP4","CLASSIFICATION_TYPE":"U","BSTAR":"-0.00008185700000","CENTER_NAME":"EARTH","PERIAPSIS":"546.423","COUNTRY_CODE":"US","MEAN_MOTION_DOT":"-0.00001500","RCS_SIZE":"LARGE","NORAD_CAT_ID":"46154","OBJECT_NAME":"STARLINK-1642","MEAN_MOTION_DDOT":"0.0000000000000","ARG_OF_PERICENTER":"83.6006","OBJECT_TYPE":"PAYLOAD","PERIOD":"95.593","FILE":"3631857","EPOCH":"2022-10-24T15:52:17.643648","ELEMENT_SET_NO":"999","RA_OF_ASC_NODE":"77.4080","TLE_LINE2":"2 46154  53.0542  77.4080 0001214  83.6006 276.5121 15.06383621120516","SITE":"AFETR"},{"COUNTRY_CODE":"US","MEAN_MOTION_DOT":"-0.00002723","RCS_SIZE":"LARGE","OBJECT_NAME":"STARLINK-1667","NORAD_CAT_ID":"46155","MEAN_MOTION_DDOT":"0.0000000000000","ARG_OF_PERICENTER":"79.9456","OBJECT_TYPE":"PAYLOAD","PERIOD":"95.594","FILE":"3631857","EPOCH":"2022-10-24T18:03:41.086368","ELEMENT_SET_NO":"999","RA_OF_ASC_NODE":"47.0069","TLE_LINE2":"2 46155  53.0562  47.0069 0001510  79.9456 280.1704 15.06368713122183","SITE":"AFETR","MEAN_MOTION":"15.06368713","EPHEMERIS_TYPE":"0","APOAPSIS":"548.355","OBJECT_ID":"2020-057AQ","REV_AT_EPOCH":"12218","TLE_LINE1":"1 46155U 20057AQ  22297.75255887 -.00002723  00000-0 -16411-3 0  9996","ECCENTRICITY":"0.00015100","INCLINATION":"53.0562","LAUNCH_DATE":"2020-08-18","DECAY_DATE":null,"GP_ID":"216069519","SEMIMAJOR_AXIS":"6925.444","REF_FRAME":"TEME","TIME_SYSTEM":"UTC","MEAN_ANOMALY":"280.1704","MEAN_ELEMENT_THEORY":"SGP4","CLASSIFICATION_TYPE":"U","BSTAR":"-0.00016411000000","CENTER_NAME":"EARTH","PERIAPSIS":"546.264"},{"RCS_SIZE":"LARGE","OBJECT_NAME":"STARLINK-1545","NORAD_CAT_ID":"46156","MEAN_MOTION_DOT":"-0.00001170","COUNTRY_CODE":"US","OBJECT_TYPE":"PAYLOAD","ARG_OF_PERICENTER":"83.9604","MEAN_MOTION_DDOT":"0.0000000000000","ELEMENT_SET_NO":"999","RA_OF_ASC_NODE":"67.0546","EPOCH":"2022-10-24T17:50:24.204480","PERIOD":"95.594","FILE":"3631857","SITE":"AFETR","TLE_LINE2":"2 46156  53.0573  67.0546 0001314  83.9604 276.1534 15.06377094121918","APOAPSIS":"548.194","OBJECT_ID":"2020-057AR","REV_AT_EPOCH":"12191","MEAN_MOTION":"15.06377094","EPHEMERIS_TYPE":"0","DECAY_DATE":null,"LAUNCH_DATE":"2020-08-18","INCLINATION":"53.0573","TLE_LINE1":"1 46156U 20057AR  22297.74333570 -.00001170  00000-0 -59725-4 0  9993","ECCENTRICITY":"0.00013140","MEAN_ELEMENT_THEORY":"SGP4","CLASSIFICATION_TYPE":"U","REF_FRAME":"TEME","SEMIMAJOR_AXIS":"6925.419","TIME_SYSTEM":"UTC","MEAN_ANOMALY":"276.1534","GP_ID":"216067770","PERIAPSIS":"546.374","BSTAR":"-0.00005972500000","CENTER_NAME":"EARTH"},{"SITE":"AFETR","TLE_LINE2":"2 46157  53.0562  47.1121 0001682  52.1104 308.0037 15.06377655120944","EPOCH":"2022-10-24T17:31:48.963648","FILE":"3631857","PERIOD":"95.594","RA_OF_ASC_NODE":"47.1121","ELEMENT_SET_NO":"999","ARG_OF_PERICENTER":"52.1104","MEAN_MOTION_DDOT":"0.0000000000000","OBJECT_TYPE":"PAYLOAD","COUNTRY_CODE":"US","NORAD_CAT_ID":"46157","OBJECT_NAME":"STARLINK-1587","RCS_SIZE":"LARGE","MEAN_MOTION_DOT":"-0.00002427","CENTER_NAME":"EARTH","BSTAR":"-0.00014420000000","PERIAPSIS":"546.117","GP_ID":"216068020","CLASSIFICATION_TYPE":"U","MEAN_ELEMENT_THEORY":"SGP4","TIME_SYSTEM":"UTC","MEAN_ANOMALY":"308.0037","SEMIMAJOR_AXIS":"6925.417","REF_FRAME":"TEME","INCLINATION":"53.0562","ECCENTRICITY":"0.00016820","TLE_LINE1":"1 46157U 20057AS  22297.73042782 -.00002427  00000-0 -14420-3 0  9993","DECAY_DATE":null,"LAUNCH_DATE":"2020-08-18","EPHEMERIS_TYPE":"0","MEAN_MOTION":"15.06377655","REV_AT_EPOCH":"12094","OBJECT_ID":"2020-057AS","APOAPSIS":"548.447"},{"SITE":"AFETR","TLE_LINE2":"2 46158  53.0543  47.7163 0001228  78.6233 281.4894 15.06382730122181","EPOCH":"2022-10-24T14:15:25.201152","FILE":"3631857","PERIOD":"95.593","RA_OF_ASC_NODE":"47.7163","ELEMENT_SET_NO":"999","ARG_OF_PERICENTER":"78.6233","MEAN_MOTION_DDOT":"0.0000000000000","OBJECT_TYPE":"PAYLOAD","COUNTRY_CODE":"US","OBJECT_NAME":"STARLINK-1589","NORAD_CAT_ID":"46158","RCS_SIZE":"LARGE","MEAN_MOTION_DOT":"-0.00003559","CENTER_NAME":"EARTH","BSTAR":"-0.00022025000000","PERIAPSIS":"546.416","GP_ID":"216069269","CLASSIFICATION_TYPE":"U","MEAN_ELEMENT_THEORY":"SGP4","TIME_SYSTEM":"UTC","MEAN_ANOMALY":"281.4894","REF_FRAME":"TEME","SEMIMAJOR_AXIS":"6925.401","INCLINATION":"53.0543","ECCENTRICITY":"0.00012280","TLE_LINE1":"1 46158U 20057AT  22297.59404168 -.00003559  00000-0 -22025-3 0  9995","DECAY_DATE":null,"LAUNCH_DATE":"2020-08-18","EPHEMERIS_TYPE":"0","MEAN_MOTION":"15.06382730","OBJECT_ID":"2020-057AT","REV_AT_EPOCH":"12218","APOAPSIS":"548.117"},{"GP_ID":"216069020","CLASSIFICATION_TYPE":"U","MEAN_ELEMENT_THEORY":"SGP4","MEAN_ANOMALY":"262.9011","TIME_SYSTEM":"UTC","SEMIMAJOR_AXIS":"6925.364","REF_FRAME":"TEME","CENTER_NAME":"EARTH","BSTAR":"-0.00011697000000","PERIAPSIS":"546.300","EPHEMERIS_TYPE":"0","MEAN_MOTION":"15.06394993","REV_AT_EPOCH":"12165","OBJECT_ID":"2020-057AU","APOAPSIS":"548.158","INCLINATION":"53.0558","ECCENTRICITY":"0.00013410","TLE_LINE1":"1 46159U 20057AU  22297.83362681 -.00002023  00000-0 -11697-3 0  9994","DECAY_DATE":null,"LAUNCH_DATE":"2020-08-18","EPOCH":"2022-10-24T20:00:25.356384","FILE":"3631857","PERIOD":"95.592","RA_OF_ASC_NODE":"86.6461","ELEMENT_SET_NO":"999","SITE":"AFETR","TLE_LINE2":"2 46159  53.0558  86.6461 0001341  97.2130 262.9011 15.06394993121650","COUNTRY_CODE":"US","NORAD_CAT_ID":"46159","OBJECT_NAME":"STARLINK-1595","RCS_SIZE":"LARGE","MEAN_MOTION_DOT":"-0.00002023","ARG_OF_PERICENTER":"97.2130","MEAN_MOTION_DDOT":"0.0000000000000","OBJECT_TYPE":"PAYLOAD"},{"PERIAPSIS":"546.286","CENTER_NAME":"EARTH","BSTAR":"-0.00012464000000","TIME_SYSTEM":"UTC","MEAN_ANOMALY":"269.0395","REF_FRAME":"TEME","SEMIMAJOR_AXIS":"6925.393","CLASSIFICATION_TYPE":"U","MEAN_ELEMENT_THEORY":"SGP4","GP_ID":"216068270","LAUNCH_DATE":"2020-08-18","DECAY_DATE":null,"ECCENTRICITY":"0.00014040","TLE_LINE1":"1 46160U 20057AV  22297.75807112 -.00002137  00000-0 -12464-3 0  9999","INCLINATION":"53.0562","OBJECT_ID":"2020-057AV","REV_AT_EPOCH":"12191","APOAPSIS":"548.230","EPHEMERIS_TYPE":"0","MEAN_MOTION":"15.06385522","TLE_LINE2":"2 46160  53.0562  66.9727 0001404  91.0755 269.0395 15.06385522121918","SITE":"AFETR","RA_OF_ASC_NODE":"66.9727","ELEMENT_SET_NO":"999","FILE":"3631857","PERIOD":"95.593","EPOCH":"2022-10-24T18:11:37.344768","OBJECT_TYPE":"PAYLOAD","MEAN_MOTION_DDOT":"0.0000000000000","ARG_OF_PERICENTER":"91.0755","MEAN_MOTION_DOT":"-0.00002137","OBJECT_NAME":"STARLINK-1598","NORAD_CAT_ID":"46160","RCS_SIZE":"LARGE","COUNTRY_CODE":"US"}];
